[{"OBJECT_NAME":"KUIPER-00130","OBJECT_ID":"2025-228N","EPOCH":"2026-03-09T23:25:45.285312","MEAN_MOTION":14.79902266,"ECCENTRICITY":6.059e-5,"INCLINATION":51.903,"RA_OF_ASC_NODE":349.3445,"ARG_OF_PERICENTER":87.581,"MEAN_ANOMALY":272.5222,"EPHEMERIS_TYPE":0,"CLASSIFICATION_TYPE":"U","NORAD_CAT_ID":65959,"ELEMENT_SET_NO":999,"REV_AT_EPOCH":1370,"BSTAR":0.00026674985,"MEAN_MOTION_DOT":1.812e-5,"MEAN_MOTION_DDOT":0},{"OBJECT_NAME":"PSLV R\/B","OBJECT_ID":"2005-017C","EPOCH":"2026-03-09T16:49:16.637664","MEAN_MOTION":14.7902073,"ECCENTRICITY":0.00655294,"INCLINATION":97.8741,"RA_OF_ASC_NODE":334.278,"ARG_OF_PERICENTER":268.0202,"MEAN_ANOMALY":91.3504,"EPHEMERIS_TYPE":0,"CLASSIFICATION_TYPE":"U","NORAD_CAT_ID":28651,"ELEMENT_SET_NO":999,"REV_AT_EPOCH":12034,"BSTAR":0.00019146274,"MEAN_MOTION_DOT":1.411e-5,"MEAN_MOTION_DDOT":0}]
